NORAD_CAT_ID,OBJECT_NAME,OBJECT_TYPE,EPOCH,MEAN_MOTION,ECCENTRICITY,INCLINATION,RA_OF_ASC_NODE,ARG_OF_PERICENTER,MEAN_ANOMALY,BSTAR,MEAN_MOTION_DOT,MEAN_MOTION_DDOT,TLE_LINE0,TLE_LINE1,TLE_LINE2,SEMIMAJOR_AXIS,PERIOD,APOGEE,PERIGEE,DECAYED
53138.0,STARLINK-4141,PAYLOAD,2024-08-17 08:04:09,15.0883962,0.0001376,53.2142,205.2294,94.6406,265.4743,4.1317e-05,3.7e-06,0.0,0 STARLINK-4141,1 53138U 22083G   24230.33621598  .00000370  00000-0  41317-4 0  9993,2 53138  53.2142 205.2294 0001376  94.6406 265.4743 15.08839620116101,6917.882,95.438,540.698,538.795,0.0
53138.0,STARLINK-4141,PAYLOAD,2024-08-18 04:44:09,15.08845381,0.0001377,53.2152,201.3651,92.0486,268.0664,0.00011839,1.597e-05,0.0,0 STARLINK-4141,1 53138U 22083G   24231.19733345  .00001597  00000-0  11839-3 0  9999,2 53138  53.2152 201.3651 0001377  92.0486 268.0664 15.08845381116233,6917.864,95.437,540.682,538.776,0.0
53138.0,STARLINK-4141,PAYLOAD,2024-08-18 07:54:55,15.08846801,0.000135,53.215,200.7694,93.163,266.9516,0.00013361,1.84e-05,0.0,0 STARLINK-4141,1 53138U 22083G   24231.32981210  .00001840  00000-0  13361-3 0  9993,2 53138  53.2150 200.7694 0001350  93.1630 266.9516 15.08846801116102,6917.86,95.437,540.659,538.791,0.0
53138.0,STARLINK-4141,PAYLOAD,2024-08-19 04:34:57,15.08835245,0.0001282,53.2161,196.9025,80.0577,280.056,5.9936e-05,6.66e-06,0.0,0 STARLINK-4141,1 53138U 22083G   24232.19093857  .00000666  00000-0  59936-4 0  9994,2 53138  53.2161 196.9025 0001282  80.0577 280.0560 15.08835245116237,6917.895,95.438,540.647,538.873,0.0
53138.0,STARLINK-4141,PAYLOAD,2024-08-20 07:36:30,15.08838486,0.0001269,53.2158,191.8483,80.1148,279.9987,1.0299e-05,-1.24e-06,0.0,0 STARLINK-4141,1 53138U 22083G   24233.31701911 -.00000124  00000-0  10299-4 0  9995,2 53138  53.2158 191.8483 0001269  80.1148 279.9987 15.08838486116404,6917.885,95.438,540.628,538.872,0.0
53138.0,STARLINK-4141,PAYLOAD,2024-08-21 05:51:54,15.08835344,0.0001284,53.2159,187.6854,80.0912,280.0225,7.6876e-05,9.36e-06,0.0,0 STARLINK-4141,1 53138U 22083G   24234.24438235  .00000936  00000-0  76876-4 0  9997,2 53138  53.2159 187.6854 0001284  80.0912 280.0225 15.08835344116694,6917.895,95.438,540.648,538.871,0.0
53138.0,STARLINK-4141,PAYLOAD,2024-08-22 04:07:18,15.08839795,0.0001297,53.2159,183.5223,81.1809,278.933,9.5317e-05,1.229e-05,0.0,0 STARLINK-4141,1 53138U 22083G   24235.17174184  .00001229  00000-0  95317-4 0  9997,2 53138  53.2159 183.5223 0001297  81.1809 278.9330 15.08839795116686,6917.881,95.438,540.643,538.849,0.0
